*******************************************************************************
Ephemeris / WWW_USER Mon Mar 24 10:59:58 2025 Pasadena, USA      / Horizons    
*******************************************************************************
Target body name: (2018 SL3)                      {source: JPL#9}
Center body name: Earth (399)                     {source: DE441}
Center-site name: Mauna Kea
*******************************************************************************
Start time      : A.D. 2018-Aug-22 04:55:00.0000 UT      
Stop  time      : A.D. 2018-Aug-22 15:54:00.0000 UT      
Step-size       : 1 minutes
*******************************************************************************
Target pole/equ : undefined
Target radii    : undefined                                                    
Center geodetic : 204.5278, 19.8260847, 4.21024   {E-lon(deg),Lat(deg),Alt(km)}
Center cylindric: 204.5278, 6006.35451, 2151.0229 {E-lon(deg),Dxy(km),Dz(km)}
Center pole/equ : ITRF93                          {East-longitude positive}
Center radii    : 6378.137, 6378.137, 6356.752 km {Equator_a, b, pole_c}       
Target primary  : Sun
Vis. interferer : MOON (R_eq= 1737.400) km        {source: DE441}
Rel. light bend : Sun                             {source: DE441}
Rel. lght bnd GM: 1.3271E+11 km^3/s^2                                          
Small-body perts: Yes                             {source: SB441-N16}
Atmos refraction: NO (AIRLESS)
RA format       : HMS
Time format     : CAL 
Calendar mode   : Mixed Julian/Gregorian
RTS-only print  : NO       
EOP file        : eop.250321.p250617                                           
EOP coverage    : DATA-BASED 1962-JAN-20 TO 2025-MAR-21. PREDICTS-> 2025-JUN-16
Units conversion: 1 au= 149597870.700 km, c= 299792.458 km/s, 1 day= 86400.0 s 
Table cut-offs 1: Elevation (-90.0deg=NO ),Airmass (>38.000=NO), Daylight (YES)
Table cut-offs 2: Solar elongation (  0.0,180.0=NO ),Local Hour Angle( 0.0=NO )
Table cut-offs 3: RA/DEC angular rate (     0.0=NO )                           
*******************************************************************************
Initial IAU76/J2000 heliocentric ecliptic osculating elements (au, days, deg.):
  EPOCH=  2458395.5 ! 2018-Oct-04.00 (TDB)         Residual RMS= .22865        
   EC= .523832704749462    QR= .7523817427125933   TP= 2458455.4342692108      
   OM= 5.37828463666876    W=  89.37669799750542   IN= 4.07069530013935        
  Equivalent ICRF heliocentric cartesian coordinates (au, au/d):
   X= 1.077301312774806E+00  Y= 1.718701187822678E-01  Z= 8.135917115484240E-02
  VX=-1.117713770282307E-02 VY= 1.338322199759621E-02 VZ= 7.048365308861806E-03
Asteroid physical parameters (km, seconds, rotational period in hours):        
   GM= n.a.                RAD= n.a.               ROTPER= n.a.                
   H= 24.5                 G= .150                 B-V= n.a.                   
                           ALBEDO= n.a.            STYP= n.a.                  
*******************************************************************************
 Date__(UT)__HR:MN     R.A._________(ICRF)_________DEC
******************************************************
$$SOE
 2018-Aug-22 04:55 Cm  00 35 29.384779 -01 14 14.33648
 2018-Aug-22 04:56 Cm  00 35 29.411312 -01 14 14.15598
 2018-Aug-22 04:57 Cm  00 35 29.437826 -01 14 13.97548
 2018-Aug-22 04:58 Cm  00 35 29.464322 -01 14 13.79498
 2018-Aug-22 04:59 Cm  00 35 29.490800 -01 14 13.61449
 2018-Aug-22 05:00 Cm  00 35 29.517258 -01 14 13.43400
 2018-Aug-22 05:01 Cm  00 35 29.543698 -01 14 13.25352
 2018-Aug-22 05:02 Cm  00 35 29.570120 -01 14 13.07304
 2018-Aug-22 05:03 Cm  00 35 29.596522 -01 14 12.89257
 2018-Aug-22 05:04 Cm  00 35 29.622906 -01 14 12.71209
 2018-Aug-22 05:05 Cm  00 35 29.649271 -01 14 12.53163
 2018-Aug-22 05:06 Cm  00 35 29.675617 -01 14 12.35116
 2018-Aug-22 05:07 Cm  00 35 29.701945 -01 14 12.17070
 2018-Aug-22 05:08 Cm  00 35 29.728253 -01 14 11.99024
 2018-Aug-22 05:09 Nm  00 35 29.754542 -01 14 11.80979
 2018-Aug-22 05:10 Nm  00 35 29.780812 -01 14 11.62934
 2018-Aug-22 05:11 Nm  00 35 29.807063 -01 14 11.44890
 2018-Aug-22 05:12 Nm  00 35 29.833295 -01 14 11.26846
 2018-Aug-22 05:13 Nm  00 35 29.859508 -01 14 11.08802
 2018-Aug-22 05:14 Nm  00 35 29.885701 -01 14 10.90759
 2018-Aug-22 05:15 Nm  00 35 29.911876 -01 14 10.72716
 2018-Aug-22 05:16 Nm  00 35 29.938031 -01 14 10.54673
 2018-Aug-22 05:17 Nm  00 35 29.964166 -01 14 10.36631
 2018-Aug-22 05:18 Nm  00 35 29.990283 -01 14 10.18589
 2018-Aug-22 05:19 Nm  00 35 30.016380 -01 14 10.00547
 2018-Aug-22 05:20 Nm  00 35 30.042457 -01 14 09.82506
 2018-Aug-22 05:21 Nm  00 35 30.068515 -01 14 09.64465
 2018-Aug-22 05:22 Nm  00 35 30.094553 -01 14 09.46425
 2018-Aug-22 05:23 Nm  00 35 30.120572 -01 14 09.28385
 2018-Aug-22 05:24 Nm  00 35 30.146571 -01 14 09.10345
 2018-Aug-22 05:25 Nm  00 35 30.172551 -01 14 08.92305
 2018-Aug-22 05:26 Nm  00 35 30.198511 -01 14 08.74266
 2018-Aug-22 05:27 Nm  00 35 30.224451 -01 14 08.56227
 2018-Aug-22 05:28 Nm  00 35 30.250372 -01 14 08.38189
 2018-Aug-22 05:29 Nm  00 35 30.276272 -01 14 08.20151
 2018-Aug-22 05:30 Nm  00 35 30.302153 -01 14 08.02113
 2018-Aug-22 05:31 Nm  00 35 30.328014 -01 14 07.84076
 2018-Aug-22 05:32 Nm  00 35 30.353855 -01 14 07.66038
 2018-Aug-22 05:33 Nm  00 35 30.379676 -01 14 07.48002
 2018-Aug-22 05:34 Nm  00 35 30.405478 -01 14 07.29965
 2018-Aug-22 05:35 Am  00 35 30.431259 -01 14 07.11929
 2018-Aug-22 05:36 Am  00 35 30.457020 -01 14 06.93893
 2018-Aug-22 05:37 Am  00 35 30.482761 -01 14 06.75858
 2018-Aug-22 05:38 Am  00 35 30.508483 -01 14 06.57822
 2018-Aug-22 05:39 Am  00 35 30.534184 -01 14 06.39787
 2018-Aug-22 05:40 Am  00 35 30.559864 -01 14 06.21753
 2018-Aug-22 05:41 Am  00 35 30.585525 -01 14 06.03718
 2018-Aug-22 05:42 Am  00 35 30.611166 -01 14 05.85684
 2018-Aug-22 05:43 Am  00 35 30.636786 -01 14 05.67651
 2018-Aug-22 05:44 Am  00 35 30.662386 -01 14 05.49617
 2018-Aug-22 05:45 Am  00 35 30.687966 -01 14 05.31584
 2018-Aug-22 05:46 Am  00 35 30.713525 -01 14 05.13551
 2018-Aug-22 05:47 Am  00 35 30.739064 -01 14 04.95519
 2018-Aug-22 05:48 Am  00 35 30.764583 -01 14 04.77487
 2018-Aug-22 05:49 Am  00 35 30.790081 -01 14 04.59455
 2018-Aug-22 05:50 Am  00 35 30.815559 -01 14 04.41423
 2018-Aug-22 05:51 Am  00 35 30.841016 -01 14 04.23391
 2018-Aug-22 05:52 Am  00 35 30.866453 -01 14 04.05360
 2018-Aug-22 05:53 Am  00 35 30.891869 -01 14 03.87329
 2018-Aug-22 05:54 Am  00 35 30.917265 -01 14 03.69299
 2018-Aug-22 05:55 Am  00 35 30.942640 -01 14 03.51268
 2018-Aug-22 05:56 Am  00 35 30.967995 -01 14 03.33238
 2018-Aug-22 05:57 Am  00 35 30.993329 -01 14 03.15209
 2018-Aug-22 05:58 Am  00 35 31.018642 -01 14 02.97179
 2018-Aug-22 05:59 Am  00 35 31.043935 -01 14 02.79150
 2018-Aug-22 06:00 Am  00 35 31.069207 -01 14 02.61121
 2018-Aug-22 06:01 Am  00 35 31.094458 -01 14 02.43092
 2018-Aug-22 06:02  m  00 35 31.119689 -01 14 02.25063
 2018-Aug-22 06:03  m  00 35 31.144899 -01 14 02.07035
 2018-Aug-22 06:04  m  00 35 31.170088 -01 14 01.89007
 2018-Aug-22 06:05  m  00 35 31.195256 -01 14 01.70979
 2018-Aug-22 06:06  m  00 35 31.220403 -01 14 01.52952
 2018-Aug-22 06:07  m  00 35 31.245530 -01 14 01.34924
 2018-Aug-22 06:08  m  00 35 31.270636 -01 14 01.16897
 2018-Aug-22 06:09  m  00 35 31.295721 -01 14 00.98870
 2018-Aug-22 06:10  m  00 35 31.320785 -01 14 00.80844
 2018-Aug-22 06:11  m  00 35 31.345828 -01 14 00.62817
 2018-Aug-22 06:12  m  00 35 31.370850 -01 14 00.44791
 2018-Aug-22 06:13  m  00 35 31.395851 -01 14 00.26765
 2018-Aug-22 06:14  m  00 35 31.420831 -01 14 00.08739
 2018-Aug-22 06:15  m  00 35 31.445790 -01 13 59.90714
 2018-Aug-22 06:16  m  00 35 31.470728 -01 13 59.72688
 2018-Aug-22 06:17  m  00 35 31.495645 -01 13 59.54663
 2018-Aug-22 06:18  m  00 35 31.520541 -01 13 59.36638
 2018-Aug-22 06:19  m  00 35 31.545416 -01 13 59.18614
 2018-Aug-22 06:20  m  00 35 31.570270 -01 13 59.00589
 2018-Aug-22 06:21  m  00 35 31.595103 -01 13 58.82565
 2018-Aug-22 06:22  m  00 35 31.619915 -01 13 58.64541
 2018-Aug-22 06:23  m  00 35 31.644705 -01 13 58.46517
 2018-Aug-22 06:24  m  00 35 31.669475 -01 13 58.28493
 2018-Aug-22 06:25  m  00 35 31.694223 -01 13 58.10469
 2018-Aug-22 06:26  m  00 35 31.718950 -01 13 57.92446
 2018-Aug-22 06:27  m  00 35 31.743656 -01 13 57.74423
 2018-Aug-22 06:28  m  00 35 31.768341 -01 13 57.56400
 2018-Aug-22 06:29  m  00 35 31.793004 -01 13 57.38377
 2018-Aug-22 06:30  m  00 35 31.817647 -01 13 57.20354
 2018-Aug-22 06:31  m  00 35 31.842268 -01 13 57.02332
 2018-Aug-22 06:32  m  00 35 31.866868 -01 13 56.84310
 2018-Aug-22 06:33  m  00 35 31.891446 -01 13 56.66288
 2018-Aug-22 06:34  m  00 35 31.916004 -01 13 56.48266
 2018-Aug-22 06:35  m  00 35 31.940540 -01 13 56.30244
 2018-Aug-22 06:36  m  00 35 31.965055 -01 13 56.12222
 2018-Aug-22 06:37  m  00 35 31.989548 -01 13 55.94201
 2018-Aug-22 06:38  m  00 35 32.014020 -01 13 55.76179
 2018-Aug-22 06:39  m  00 35 32.038471 -01 13 55.58158
 2018-Aug-22 06:40  m  00 35 32.062901 -01 13 55.40137
 2018-Aug-22 06:41  m  00 35 32.087309 -01 13 55.22116
 2018-Aug-22 06:42  m  00 35 32.111696 -01 13 55.04095
 2018-Aug-22 06:43  m  00 35 32.136062 -01 13 54.86075
 2018-Aug-22 06:44  m  00 35 32.160406 -01 13 54.68054
 2018-Aug-22 06:45  m  00 35 32.184729 -01 13 54.50034
 2018-Aug-22 06:46  m  00 35 32.209030 -01 13 54.32014
 2018-Aug-22 06:47  r  00 35 32.233310 -01 13 54.13994
 2018-Aug-22 06:48  m  00 35 32.257569 -01 13 53.95974
 2018-Aug-22 06:49  m  00 35 32.281807 -01 13 53.77954
 2018-Aug-22 06:50  m  00 35 32.306023 -01 13 53.59934
 2018-Aug-22 06:51  m  00 35 32.330218 -01 13 53.41915
 2018-Aug-22 06:52  m  00 35 32.354391 -01 13 53.23895
 2018-Aug-22 06:53  m  00 35 32.378543 -01 13 53.05876
 2018-Aug-22 06:54  m  00 35 32.402673 -01 13 52.87857
 2018-Aug-22 06:55  m  00 35 32.426782 -01 13 52.69837
 2018-Aug-22 06:56  m  00 35 32.450870 -01 13 52.51818
 2018-Aug-22 06:57  m  00 35 32.474937 -01 13 52.33799
